[{"OBJECT_NAME":"STARLINK-36172","OBJECT_ID":"2025-293T","EPOCH":"2026-03-09T19:05:12.319872","MEAN_MOTION":14.98326791,"ECCENTRICITY":0.00028802,"INCLINATION":70.001,"RA_OF_ASC_NODE":94.1898,"ARG_OF_PERICENTER":269.5473,"MEAN_ANOMALY":90.5356,"EPHEMERIS_TYPE":0,"CLASSIFICATION_TYPE":"U","NORAD_CAT_ID":67020,"ELEMENT_SET_NO":999,"REV_AT_EPOCH":1489,"BSTAR":0.0013659613,"MEAN_MOTION_DOT":0.00016242,"MEAN_MOTION_DDOT":0},{"OBJECT_NAME":"IRIDIUM 33 DEB","OBJECT_ID":"1997-051VK","EPOCH":"2026-03-08T19:51:10.655424","MEAN_MOTION":15.00290565,"ECCENTRICITY":0.00168472,"INCLINATION":86.319,"RA_OF_ASC_NODE":266.0445,"ARG_OF_PERICENTER":92.2879,"MEAN_ANOMALY":268.0282,"EPHEMERIS_TYPE":0,"CLASSIFICATION_TYPE":"U","NORAD_CAT_ID":36028,"ELEMENT_SET_NO":999,"REV_AT_EPOCH":88413,"BSTAR":0.0028450528,"MEAN_MOTION_DOT":0.00035903,"MEAN_MOTION_DDOT":0}]
